SL-16 R/B               
1 19120U 88039B   16323.41208386  .00000023  00000-0  33910-4 0  9993
2 19120  71.0165  50.2748 0020835 157.0912 203.1147 14.19162639476483
COSMOS 1953             
1 19210U 88050A   16322.88757703  .00000218  00000-0  13307-4 0  9992
2 19210  82.5189 238.2004 0011607 260.0434  99.9483 15.05044655524920
SL-8 R/B                
1 19257U 88053B   16323.88045897  .00000044  00000-0  23480-4 0  9991
2 19257  74.0496 243.1568 0020700 189.5240 231.4820 14.37337460488551
COSMOS 1975             
1 19573U 88093A   16322.77711235  .00000892  00000-0  62526-4 0  9994
2 19573  82.5210 189.9851 0013319 303.1977  56.7971 15.03950476506896
SL-14 R/B               
1 19574U 88093B   16323.17696981  .00000078  00000-0  65264-5 0  9999
2 19574  82.5310 342.3439 0023262  92.3023 314.9660 14.83189145518174
SL-16 R/B               
1 19650U 88102B   16322.89221343 -.00000214  00000-0 -84514-4 0  9991
2 19650  70.9991  99.3864 0012958 153.1611 207.0185 14.15751787445811
INTERCOSMOS 24          
1 20261U 89080A   16322.65945382  .00000243  00000-0  70887-4 0  9995
2 20261  82.5923 146.9870 1203916 224.4903 125.3182 12.55840897239413
SL-14 R/B               
1 20262U 89080C   16324.28406480  .00000090  00000-0  21584-4 0  9998
2 20262  82.5942 190.5341 1237682  15.1539 348.3351 12.48836342235514
DELTA 1 R/B             
1 20323U 89089B   16324.00643656  .00000073  00000-0  28072-4 0  9993
2 20323  97.0807 297.3762 0072559  22.8251 337.6144 14.48160684424300
DELTA 2 R/B(1)          
1 20453U 90008B   16324.51203734  .00002779  00000-0  16099-3 0  9995
2 20453  35.6279  21.5849 0292456 225.2735 132.3822 14.82440089417060
COSMOS 2058             
1 20465U 90010A   16323.46104311  .00000485  00000-0  39410-4 0  9990
2 20465  82.4895  90.4441 0014186 285.8124  74.1534 14.97360768453802
SL-14 R/B               
1 20466U 90010B   16323.81656138  .00000107  00000-0  10700-4 0  9991
2 20466  82.5051 209.4325 0019444 312.6366  47.3208 14.81253296446352
SL-14 R/B               
1 20511U 90018B   16324.57627938  .00000063  00000-0  52772-5 0  9997
2 20511  82.5210 149.3124 0019019  81.2893 335.2256 14.79912939441069
HST                     
1 20580U 90037B   16322.77709491  .00000739  00000-0  34907-4 0  9998
2 20580  28.4708 324.2896 0002977  62.3825 285.7132 15.08594099258239
SL-16 R/B               
1 20625U 90046B   16324.26461468  .00000010  00000-0  29891-4 0  9991
2 20625  71.0007 229.7173 0012202  61.1368 299.0978 14.14611780368155
COSMOS 2084             
1 20663U 90055A   16324.24311569  .00000280  00000-0  41483-4 0  9997
2 20663  62.7922 208.7494 0135305  69.3950 292.1596 14.91412170428491
SL-6 R/B(2)             
1 20666U 90055D   16322.88037141  .00000148  00000-0  30238-4 0  9998
2 20666  62.7823 132.6628 0136705  88.4453 273.2294 14.91773456430184
SL-8 R/B                
1 20775U 90078B   16323.84830616  .00001863  00000-0  94205-4 0  9998
2 20775  82.9320 220.4527 0591577 269.7051  83.6374 14.29641900318709
SL-8 R/B                
1 21088U 91006B   16323.78047756  .00000006  00000-0 -94978-5 0  9993
2 21088  82.9423 176.6503 0022257 186.4382 232.9278 13.77041611296648
OKEAN-3                 
1 21397U 91039A   16323.59731591  .00000325  00000-0  29177-4 0  9999
2 21397  82.5206 338.4276 0017042 217.4890 142.5143 14.92359330378372
COSMOS 2151             
1 21422U 91042A   16323.85017881  .00000298  00000-0  27114-4 0  9998
2 21422  82.5008  86.5954 0012810 277.4341  82.5422 14.91732560377146
SL-14 R/B               
1 21423U 91042B   16323.14273547  .00000058  00000-0  47093-5 0  9997
2 21423  82.4924 158.6374 0016658 218.0640 141.9397 14.79665590371371
ERS-1                   
1 21574U 91050A   16322.88285642  .00000094  00000-0  45612-4 0  9996
2 21574  98.4332 267.7098 0032085 225.0184 134.8401 14.37538391327242
ARIANE 40 R/B           
1 21610U 91050F   16323.26256262  .00000040  00000-0  26564-4 0  9992
2 21610  98.6367  12.1900 0002862 193.9029 211.1917 14.40771809329743
INTERCOSMOS 25          
1 21819U 91086A   16323.79424776 -.00000619  00000-0 -12606-3 0  9992
2 21819  82.5573 189.5584 1525083 174.5631 187.4385 12.04402726 86956
SL-14 R/B               
1 21820U 91086B   16324.15083961  .00000340  00000-0  65209-4 0  9999
2 21820  82.5622 242.3607 1578063 353.7337   4.5861 11.93235262 81732
SL-8 R/B                
1 21876U 92008B   16322.96147697  .00000058  00000-0  45130-4 0  9996
2 21876  82.9259 274.1782 0033317 263.9697 158.1808 13.75595850242110
SL-8 R/B                
1 21938U 92020B   16322.93301778  .00000129  00000-0  11776-3 0  9995
2 21938  82.9283 157.3096 0030290  62.5990  46.0780 13.75249548233958
SL-16 R/B               
1 22220U 92076B   16323.87921144 -.00000252  00000-0 -10268-3 0  9994
2 22220  70.9982 141.9338 0014830 239.0950 220.2330 14.16407041240992
SL-16 R/B               
1 22285U 92093B   16323.57237634 -.00000257  00000-0 -10834-3 0  9999
2 22285  71.0214 294.0938 0001663  82.6649 277.4662 14.15004321232745
COSMOS 2228             
1 22286U 92094A   16324.11995179  .00000265  00000-0  26283-4 0  9990
2 22286  82.5232 212.1365 0022113  97.9721 262.4007 14.87564923291268
SL-16 R/B               
1 22566U 93016B   16323.53491088 -.00000079  00000-0 -15984-4 0  9992
2 22566  71.0062 149.0949 0007913  94.0934 266.1093 14.14943740221474
COSMOS 2242             
1 22626U 93024A   16322.86082041  .00000298  00000-0  29927-4 0  9991
2 22626  82.5237 241.0151 0020660 101.0450 259.3092 14.87564326274432
SL-16 R/B               
1 22803U 93059B   16322.62426698 -.00000159  00000-0 -55365-4 0  9993
2 22803  70.9902 335.2440 0018010 340.1169  19.9250 14.16758620198069
ARIANE 40 R/B           
1 22830U 93061H   16323.54187980 -.00000054  00000-0 -27792-5 0  9994
2 22830  98.8892 328.0766 0010898 177.8647 291.9422 14.31414253208118
COSMOS 2278             
1 23087U 94023A   16323.56351629  .00000034  00000-0  42732-4 0  9999
2 23087  71.0552  79.1821 0008816 192.1291 167.9620 14.13738114164722
SL-16 R/B               
1 23088U 94023B   16324.19424774 -.00000224  00000-0 -91771-4 0  9992
2 23088  71.0012   2.7999 0001870   6.8339 353.2808 14.14651430165847
SL-16 R/B               
1 23343U 94074B   16324.57567557 -.00000018  00000-0  50065-5 0  9993
2 23343  98.1793 353.2693 0007570  34.6596 125.7587 14.76680845185892
SL-16 R/B               
1 23405U 94077B   16322.93594517 -.00000304  00000-0 -13183-3 0  9996
2 23405  70.9823 299.5489 0005103 276.8427  83.2115 14.15186758135371
ERS-2                   
1 23560U 95021A   16324.01065118  .00001799  00000-0  87765-4 0  9994
2 23560  98.5320 282.5257 0002817 316.8719  43.2291 15.19910838143452
ARIANE 40+ R/B          
1 23561U 95021B   16323.89655282  .00000049  00000-0  31602-4 0  9993
2 23561  98.7831 314.3636 0007322 153.4736 264.0435 14.37779350131032
SL-16 R/B               
1 23705U 95058B   16323.51875514  .00000258  00000-0  15757-3 0  9998
2 23705  71.0210 111.0248 0014714 260.8706  99.0752 14.15094173 87386
SL-16 R/B               
1 24298U 96051B   16323.96375071  .00000145  00000-0  10488-3 0  9993
2 24298  70.8420 145.1391 0015049 147.3198 212.8857 14.12453386 42134
ORBVIEW 2 (SEASTAR)     
1 24883U 97037A   16322.88623196  .00000064  00000-0  39072-4 0  9993
2 24883  98.5319  68.5127 0002702  37.0799 323.0572 14.33354543 21388
SL-16 R/B               
1 25400U 98043G   16323.83839108 -.00000001  00000-0  17579-4 0  9995
2 25400  98.4600 273.1037 0009625 184.7697 175.3393 14.25396692955105
SL-16 R/B               
1 25407U 98045B   16322.89364622 -.00000195  00000-0 -74929-4 0  9990
2 25407  71.0086 125.4556 0007697 186.3566 173.7461 14.15756328946004
ISS (ZARYA)             
1 25544U 98067A   16322.62399642  .00004971  00000-0  83626-4 0  9995
2 25544  51.6453  12.8554 0006491 220.9325 262.6653 15.53670092 28855
SL-8 R/B                
1 25723U 99022C   16324.31441140  .00005540  00000-0  10028-3 0  9993
2 25723  48.4164 203.9394 0010436 108.8153 251.3924 15.51132921973889
CZ-4B R/B               
1 25732U 99025C   16322.66588751 -.00000031  00000-0  73091-5 0  9994
2 25732  98.9833 315.9501 0036974 334.8154 155.0064 14.17620772906667
OKEAN-O                 
1 25860U 99039A   16324.52707459  .00000100  00000-0  22002-4 0  9997
2 25860  98.1634 300.8338 0001881  88.4995 271.6429 14.76425303932897
SL-16 R/B               
1 25861U 99039B   16322.93638253  .00000053  00000-0  14561-4 0  9994
2 25861  98.0756 287.2089 0016703  45.4685  19.3850 14.78365865934458
TERRA                   
1 25994U 99068A   16324.28218431  .00000263  00000-0  68377-4 0  9992
2 25994  98.2094  36.3322 0000977 108.2809 251.8493 14.57107664900106
SL-14 R/B               
1 26874U 01032B   16324.20219351  .00038404 -61809-6  11926-3 0  9994
2 26874  82.4553 110.9635 0004787 336.3947  23.7105 15.91377869860202
ENVISAT                 
1 27386U 02009A   16324.44306452  .00000031  00000-0  24086-4 0  9999
2 27386  98.2636  12.1383 0001100  89.1021 271.0293 14.37882102770939
IDEFIX & ARIANE 42P R/B 
1 27422U 02021B   16324.13861056 -.00000031  00000-0  38612-5 0  9998
2 27422  98.2281 330.0805 0013137 135.6591 224.5647 14.29252553756672
AQUA                    
1 27424U 02022A   16322.94124505  .00000164  00000-0  46489-4 0  9995
2 27424  98.2146 261.1926 0002129  67.5328   2.9842 14.57104368773464
CZ-4B R/B               
1 27432U 02024C   16323.02408734 -.00000014  00000-0  16607-4 0  9999
2 27432  98.9586 289.7239 0049487 270.1794 139.6360 14.14030116748959
MIDORI II (ADEOS-II)    
1 27597U 02056A   16323.52964589  .00000064  00000-0  43157-4 0  9990
2 27597  98.3414 296.3825 0000661 141.2036 218.9193 14.27248725725375
H-2A R/B                
1 27601U 02056E   16324.18505131  .00000043  00000-0  31212-4 0  9999
2 27601  98.4040  32.9580 0071979 197.0846 188.4625 14.31747955727767
